[{"OBJECT_NAME":"WORLDVIEW-3 (WV-3)","OBJECT_ID":"2014-048A","EPOCH":"2026-03-09T21:50:50.799552","MEAN_MOTION":14.84835527,"ECCENTRICITY":9.96e-6,"INCLINATION":97.8634,"RA_OF_ASC_NODE":145.1004,"ARG_OF_PERICENTER":1.3842,"MEAN_ANOMALY":358.7373,"EPHEMERIS_TYPE":0,"CLASSIFICATION_TYPE":"U","NORAD_CAT_ID":40115,"ELEMENT_SET_NO":999,"REV_AT_EPOCH":62717,"BSTAR":0.00016114754,"MEAN_MOTION_DOT":1.316e-5,"MEAN_MOTION_DDOT":0},{"OBJECT_NAME":"ALOS DEB","OBJECT_ID":"2006-002Z","EPOCH":"2026-03-09T22:11:13.440768","MEAN_MOTION":14.85239125,"ECCENTRICITY":0.00017682,"INCLINATION":98.1894,"RA_OF_ASC_NODE":54.0256,"ARG_OF_PERICENTER":103.8997,"MEAN_ANOMALY":310.4745,"EPHEMERIS_TYPE":0,"CLASSIFICATION_TYPE":"U","NORAD_CAT_ID":35418,"ELEMENT_SET_NO":999,"REV_AT_EPOCH":1930,"BSTAR":0.00074748634,"MEAN_MOTION_DOT":6.359e-5,"MEAN_MOTION_DDOT":0}]
